NORAD_CAT_ID,OBJECT_NAME,OBJECT_TYPE,EPOCH,MEAN_MOTION,ECCENTRICITY,INCLINATION,RA_OF_ASC_NODE,ARG_OF_PERICENTER,MEAN_ANOMALY,BSTAR,MEAN_MOTION_DOT,MEAN_MOTION_DDOT,TLE_LINE0,TLE_LINE1,TLE_LINE2,SEMIMAJOR_AXIS,PERIOD,APOGEE,PERIGEE,DECAYED
53242.0,STARLINK-4056,PAYLOAD,2024-05-27 13:31:47,15.08844302,0.0001202,53.2158,242.1303,77.2586,282.854,0.00020224,2.933e-05,0.0,0 STARLINK-4056,1 53242U 22086A   24148.56374432  .00002933  00000-0  20224-3 0  9997,2 53242  53.2158 242.1303 0001202  77.2586 282.8540 15.08844302102510,6917.867,95.437,540.564,538.901,0.0
53242.0,STARLINK-4056,PAYLOAD,2024-05-28 13:22:34,15.08848961,0.0001268,53.2153,237.6685,74.3599,285.7533,0.00023366,3.434e-05,0.0,0 STARLINK-4056,1 53242U 22086A   24149.55734135  .00003434  00000-0  23366-3 0  9994,2 53242  53.2153 237.6685 0001268  74.3599 285.7533 15.08848961103162,6917.853,95.437,540.595,538.841,0.0
53242.0,STARLINK-4056,PAYLOAD,2024-05-29 05:16:25,15.08840726,0.000108,53.2158,234.6967,87.4412,272.6704,5.4058e-05,5.73e-06,0.0,0 STARLINK-4056,1 53242U 22086A   24150.21974282  .00000573  00000-0  54058-4 0  9992,2 53242  53.2158 234.6967 0001080  87.4412 272.6704 15.08840726102769,6917.878,95.438,540.49,538.996,0.0
53242.0,STARLINK-4056,PAYLOAD,2024-05-29 13:13:21,15.08842208,0.0001373,53.2163,233.209,72.7618,287.3525,0.00012573,1.714e-05,0.0,0 STARLINK-4056,1 53242U 22086A   24150.55094511  .00001714  00000-0  12573-3 0  9990,2 53242  53.2163 233.2090 0001373  72.7618 287.3525 15.08842208103310,6917.874,95.437,540.688,538.789,0.0
53242.0,STARLINK-4056,PAYLOAD,2024-05-30 11:28:45,15.08849088,0.0001499,53.2161,229.0468,67.9285,292.1867,0.00021801,3.184e-05,0.0,0 STARLINK-4056,1 53242U 22086A   24151.47830391  .00003184  00000-0  21801-3 0  9993,2 53242  53.2161 229.0468 0001499  67.9285 292.1867 15.08849088102950,6917.853,95.437,540.755,538.681,0.0
53242.0,STARLINK-4056,PAYLOAD,2024-05-31 09:44:09,15.08845943,0.0001375,53.2156,224.8829,79.0098,281.1049,0.00019055,2.746e-05,0.0,0 STARLINK-4056,1 53242U 22086A   24152.40566402  .00002746  00000-0  19055-3 0  9997,2 53242  53.2156 224.8829 0001375  79.0098 281.1049 15.08845943103099,6917.862,95.437,540.678,538.776,0.0
53242.0,STARLINK-4056,PAYLOAD,2024-05-31 11:19:32,15.08847974,0.000145,53.2163,224.5846,99.4467,260.6689,0.0002129,3.103e-05,0.0,0 STARLINK-4056,1 53242U 22086A   24152.47190218  .00003103  00000-0  21290-3 0  9994,2 53242  53.2163 224.5846 0001450  99.4467 260.6689 15.08847974103608,6917.856,95.437,540.724,538.718,0.0
53242.0,STARLINK-4056,PAYLOAD,2024-06-01 04:48:47,15.08840782,0.0001443,53.2159,221.3137,98.8969,261.2186,5.7738e-05,6.31e-06,0.0,0 STARLINK-4056,1 53242U 22086A   24153.20054455  .00000631  00000-0  57738-4 0  9998,2 53242  53.2159 221.3137 0001443  98.8969 261.2186 15.08840782103219,6917.878,95.438,540.741,538.745,0.0
53242.0,STARLINK-4056,PAYLOAD,2024-06-01 11:10:19,15.08840945,0.0001364,53.2163,220.1256,94.6937,265.4211,4.0067e-05,3.5e-06,0.0,0 STARLINK-4056,1 53242U 22086A   24153.46550465  .00000350  00000-0  40067-4 0  9993,2 53242  53.2163 220.1256 0001364  94.6937 265.4211 15.08840945103759,6917.878,95.437,540.686,538.799,0.0
53242.0,STARLINK-4056,PAYLOAD,2024-06-02 04:39:34,15.0882937,0.0001359,53.2154,216.8541,94.9585,265.1563,0.00010087,1.317e-05,0.0,0 STARLINK-4056,1 53242U 22086A   24154.19415151  .00001317  00000-0  10087-3 0  9998,2 53242  53.2154 216.8541 0001359  94.9585 265.1563 15.08829370103367,6917.913,95.438,540.718,538.838,0.0
53242.0,STARLINK-4056,PAYLOAD,2024-06-02 11:01:07,15.08835107,0.0001405,53.2162,215.6643,96.6616,263.4536,1.5493e-05,-4.1e-07,0.0,0 STARLINK-4056,1 53242U 22086A   24154.45911014 -.00000041  00000-0  15493-4 0  9997,2 53242  53.2162 215.6643 0001405  96.6616 263.4536 15.08835107103908,6917.895,95.438,540.732,538.788,0.0
53242.0,STARLINK-4056,PAYLOAD,2024-06-02 20:33:25,15.08837786,0.0001332,53.2158,213.8792,93.121,266.9935,-5.5453e-06,-3.76e-06,0.0,0 STARLINK-4056,1 53242U 22086A   24154.85655007 -.00000376  00000-0 -55453-5 0  9991,2 53242  53.2158 213.8792 0001332  93.1210 266.9935 15.08837786103961,6917.887,95.438,540.674,538.831,0.0
53242.0,STARLINK-4056,PAYLOAD,2024-06-03 10:51:54,15.08835587,0.000143,53.2164,211.204,93.5054,266.6102,5.4949e-05,5.87e-06,0.0,0 STARLINK-4056,1 53242U 22086A   24155.45271346  .00000587  00000-0  54949-4 0  9998,2 53242  53.2164 211.2040 0001430  93.5054 266.6102 15.08835587103550,6917.894,95.438,540.748,538.77,0.0
53242.0,STARLINK-4056,PAYLOAD,2024-06-03 20:24:13,15.08833919,0.0001396,53.2163,209.4201,91.0119,269.1033,5.9485e-05,6.59e-06,0.0,0 STARLINK-4056,1 53242U 22086A   24155.85015629  .00000659  00000-0  59485-4 0  9992,2 53242  53.2163 209.4201 0001396  91.0119 269.1033 15.08833919104114,6917.899,95.438,540.73,538.798,0.0
53242.0,STARLINK-4056,PAYLOAD,2024-06-04 12:18:04,15.08841342,0.0001346,53.2157,206.446,90.4142,269.7004,0.00013651,1.885e-05,0.0,0 STARLINK-4056,1 53242U 22086A   24156.51255271  .00001885  00000-0  13651-3 0  9991,2 53242  53.2157 206.4460 0001346  90.4142 269.7004 15.08841342103713,6917.876,95.437,540.672,538.81,0.0
53242.0,STARLINK-4056,PAYLOAD,2024-06-04 20:15:00,15.08842289,0.0001319,53.2156,204.959,87.4808,272.6335,0.00015449,2.172e-05,0.0,0 STARLINK-4056,1 53242U 22086A   24156.84375191  .00002172  00000-0  15449-3 0  9998,2 53242  53.2156 204.9590 0001319  87.4808 272.6335 15.08842289104266,6917.873,95.437,540.651,538.826,0.0
53242.0,STARLINK-4056,PAYLOAD,2024-06-05 12:08:51,15.0884097,0.0001416,53.2158,201.9856,95.5335,264.5819,0.00017453,2.491e-05,0.0,0 STARLINK-4056,1 53242U 22086A   24157.50615276  .00002491  00000-0  17453-3 0  9994,2 53242  53.2158 201.9856 0001416  95.5335 264.5819 15.08840970104366,6917.877,95.437,540.722,538.763,0.0
53242.0,STARLINK-4056,PAYLOAD,2024-06-05 20:05:47,15.08844449,0.0001383,53.2158,200.4984,86.5087,273.6063,9.1535e-05,1.169e-05,0.0,0 STARLINK-4056,1 53242U 22086A   24157.83735176  .00001169  00000-0  91535-4 0  9997,2 53242  53.2158 200.4984 0001383  86.5087 273.6063 15.08844449103916,6917.867,95.437,540.689,538.775,0.0
53242.0,STARLINK-4056,PAYLOAD,2024-06-06 10:24:15,15.08848051,0.0001355,53.2154,197.8214,86.0229,274.0918,5.1124e-05,5.26e-06,0.0,0 STARLINK-4056,1 53242U 22086A   24158.43350962  .00000526  00000-0  51124-4 0  9996,2 53242  53.2154 197.8214 0001355  86.0229 274.0918 15.08848051104502,6917.856,95.437,540.658,538.783,0.0
53242.0,STARLINK-4056,PAYLOAD,2024-06-07 02:18:06,15.08837065,0.0001382,53.2154,194.8486,87.2953,272.8198,0.00010231,1.341e-05,0.0,0 STARLINK-4056,1 53242U 22086A   24159.09591365  .00001341  00000-0  10231-3 0  9992,2 53242  53.2154 194.8486 0001382  87.2953 272.8198 15.08837065104102,6917.889,95.438,540.71,538.798,0.0
53242.0,STARLINK-4056,PAYLOAD,2024-06-07 08:39:39,15.08828752,0.0001395,53.2157,193.6585,88.753,271.3622,0.00016381,2.319e-05,0.0,0 STARLINK-4056,1 53242U 22086A   24159.36087846  .00002319  00000-0  16381-3 0  9994,2 53242  53.2157 193.6585 0001395  88.7530 271.3622 15.08828752104146,6917.915,95.438,540.745,538.815,0.0
53242.0,STARLINK-4056,PAYLOAD,2024-06-08 05:19:39,15.08850679,0.0001621,53.2157,189.7927,86.6789,273.4389,-2.4398e-05,-6.76e-06,0.0,0 STARLINK-4056,1 53242U 22086A   24160.22198677 -.00000676  00000-0 -24398-4 0  9990,2 53242  53.2157 189.7927 0001621  86.6789 273.4389 15.08850679104277,6917.848,95.437,540.834,538.591,0.0
53242.0,STARLINK-4056,PAYLOAD,2024-06-08 08:30:25,15.08845558,0.0001441,53.2157,189.1981,87.8822,272.2335,7.2261e-05,8.62e-06,0.0,0 STARLINK-4056,1 53242U 22086A   24160.35446713  .00000862  00000-0  72261-4 0  9998,2 53242  53.2157 189.1981 0001441  87.8822 272.2335 15.08845558104797,6917.863,95.437,540.725,538.732,0.0
53242.0,STARLINK-4056,PAYLOAD,2024-06-09 05:10:27,15.08833836,0.000157,53.2169,185.331,94.1944,265.9228,-8.1364e-06,-4.17e-06,0.0,0 STARLINK-4056,1 53242U 22086A   24161.21559813 -.00000417  00000-0 -81364-5 0  9993,2 53242  53.2169 185.3310 0001570  94.1944 265.9228 15.08833836104429,6917.899,95.438,540.85,538.678,0.0
53242.0,STARLINK-4056,PAYLOAD,2024-06-09 08:21:14,15.08831528,0.0001515,53.2167,184.7363,92.4636,267.653,-2.9102e-05,-7.51e-06,0.0,0 STARLINK-4056,1 53242U 22086A   24161.34808041 -.00000751  00000-0 -29102-4 0  9999,2 53242  53.2167 184.7363 0001515  92.4636 267.6530 15.08831528104944,6917.906,95.438,540.819,538.723,0.0
53242.0,STARLINK-4056,PAYLOAD,2024-06-10 08:12:00,15.08839049,0.0001439,53.2163,180.2773,89.5322,270.5835,4.028e-05,3.53e-06,0.0,0 STARLINK-4056,1 53242U 22086A   24162.34167635  .00000353  00000-0  40280-4 0  9993,2 53242  53.2163 180.2773 0001439  89.5322 270.5835 15.08839049104598,6917.883,95.438,540.744,538.753,0.0
53242.0,STARLINK-4056,PAYLOAD,2024-06-10 17:44:19,15.0883766,0.0001352,53.2154,178.4922,85.683,274.4317,6.0763e-05,6.79e-06,0.0,0 STARLINK-4056,1 53242U 22086A   24162.73911714  .00000679  00000-0  60763-4 0  9990,2 53242  53.2154 178.4922 0001352  85.6830 274.4317 15.08837660105156,6917.888,95.438,540.688,538.817,0.0
53242.0,STARLINK-4056,PAYLOAD,2024-06-11 09:38:11,15.08835541,0.0001404,53.216,175.5197,89.1954,270.9199,0.00010817,1.434e-05,0.0,0 STARLINK-4056,1 53242U 22086A   24163.40151960  .00001434  00000-0  10817-3 0  9998,2 53242  53.2160 175.5197 0001404  89.1954 270.9199 15.08835541105255,6917.894,95.438,540.73,538.788,0.0
53242.0,STARLINK-4056,PAYLOAD,2024-06-12 04:42:48,15.08841837,0.0001377,53.2155,171.9512,90.4625,269.6525,5.8565e-05,6.44e-06,0.0,0 STARLINK-4056,1 53242U 22086A   24164.19639810  .00000644  00000-0  58565-4 0  9995,2 53242  53.2155 171.9512 0001377  90.4625 269.6525 15.08841837104879,6917.875,95.437,540.692,538.787,0.0
53242.0,STARLINK-4056,PAYLOAD,2024-06-12 06:18:11,15.08841943,0.0001377,53.2156,171.6539,90.4184,269.6965,5.8252e-05,6.39e-06,0.0,0 STARLINK-4056,1 53242U 22086A   24164.26263798  .00000639  00000-0  58252-4 0  9998,2 53242  53.2156 171.6539 0001377  90.4184 269.6965 15.08841943105389,6917.874,95.437,540.692,538.787,0.0
